{
  "type": "FeatureCollection",
  "features": [
    {
      "type": "Feature",
      "properties": {
        "norad_id": 37436,
        "name": "FENGYUN 1C DEB",
        "group": "fengyun-1c-debris",
        "lat": 7.89990337834671,
        "lon": 45.78435723145263,
        "alt_km": 897.2611663313901,
        "timestamp": "2025-12-18T14:52:08.314870+00:00",
        "meta_object_name": "FENGYUN 1C DEB",
        "meta_object_id": "1999-025EHE",
        "meta_epoch": "2025-12-08T08:57:07.720992",
        "meta_mean_motion": 14.06336267,
        "meta_eccentricity": 0.00596162,
        "meta_inclination": 98.9375,
        "meta_ra_of_asc_node": 36.9205,
        "meta_arg_of_pericenter": 160.2305,
        "meta_mean_anomaly": 200.1192,
        "meta_ephemeris_type": 0,
        "meta_classification_type": "U",
        "meta_norad_cat_id": 37436,
        "meta_element_set_no": 999,
        "meta_rev_at_epoch": 63937,
        "meta_bstar": 0.0011550832,
        "meta_mean_motion_dot": 1.893e-05,
        "meta_mean_motion_ddot": 0,
        "tle_line1": "1 37436U 99025EHE 25342.37300603  .00001893  00000+0  11551-2 0  9991",
        "tle_line2": "2 37436  98.9375  36.9205 0059616 160.2305 200.1192 14.06336267639376"
      },
      "geometry": {
        "type": "Point",
        "coordinates": [
          45.78435723145263,
          7.89990337834671
        ]
      }
    },
    {
      "type": "Feature",
      "properties": {
        "norad_id": 37437,
        "name": "FENGYUN 1C DEB",
        "group": "fengyun-1c-debris",
        "lat": -11.616758882180868,
        "lon": 162.53063112452213,
        "alt_km": 909.8083444876411,
        "timestamp": "2025-12-18T14:52:08.314880+00:00",
        "meta_object_name": "FENGYUN 1C DEB",
        "meta_object_id": "1999-025EHF",
        "meta_epoch": "2025-12-17T18:29:44.922048",
        "meta_mean_motion": 14.18865115,
        "meta_eccentricity": 0.01130155,
        "meta_inclination": 98.5858,
        "meta_ra_of_asc_node": 343.4882,
        "meta_arg_of_pericenter": 34.3362,
        "meta_mean_anomaly": 143.2771,
        "meta_ephemeris_type": 0,
        "meta_classification_type": "U",
        "meta_norad_cat_id": 37437,
        "meta_element_set_no": 999,
        "meta_rev_at_epoch": 64062,
        "meta_bstar": 0.00044498448,
        "meta_mean_motion_dot": 9.45e-06,
        "meta_mean_motion_ddot": 0,
        "tle_line1": "1 37437U 99025EHF 25351.77065882  .00000945  00000+0  44498-3 0  9997",
        "tle_line2": "2 37437  98.5858 343.4882 0113015  34.3362 143.2771 14.18865115640626"
      },
      "geometry": {
        "type": "Point",
        "coordinates": [
          162.53063112452213,
          -11.616758882180868
        ]
      }
    },
    {
      "type": "Feature",
      "properties": {
        "norad_id": 37438,
        "name": "FENGYUN 1C DEB",
        "group": "fengyun-1c-debris",
        "lat": 40.24362909103977,
        "lon": -141.02304056522448,
        "alt_km": 829.0402005205924,
        "timestamp": "2025-12-18T14:52:08.314890+00:00",
        "meta_object_name": "FENGYUN 1C DEB",
        "meta_object_id": "1999-025EHG",
        "meta_epoch": "2025-12-17T22:56:38.488128",
        "meta_mean_motion": 14.1553014,
        "meta_eccentricity": 0.0029006,
        "meta_inclination": 98.7424,
        "meta_ra_of_asc_node": 30.8431,
        "meta_arg_of_pericenter": 207.8952,
        "meta_mean_anomaly": 152.0668,
        "meta_ephemeris_type": 0,
        "meta_classification_type": "U",
        "meta_norad_cat_id": 37438,
        "meta_element_set_no": 999,
        "meta_rev_at_epoch": 60209,
        "meta_bstar": 0.00055037209,
        "meta_mean_motion_dot": 1.037e-05,
        "meta_mean_motion_ddot": 0,
        "tle_line1": "1 37438U 99025EHG 25351.95600102  .00001037  00000+0  55037-3 0  9992",
        "tle_line2": "2 37438  98.7424  30.8431 0029006 207.8952 152.0668 14.15530140602099"
      },
      "geometry": {
        "type": "Point",
        "coordinates": [
          -141.02304056522448,
          40.24362909103977
        ]
      }
    },
    {
      "type": "Feature",
      "properties": {
        "norad_id": 37441,
        "name": "FENGYUN 1C DEB",
        "group": "fengyun-1c-debris",
        "lat": 56.64675657168321,
        "lon": 32.86044267332347,
        "alt_km": 1124.2006458004153,
        "timestamp": "2025-12-18T14:52:08.314900+00:00",
        "meta_object_name": "FENGYUN 1C DEB",
        "meta_object_id": "1999-025EHK",
        "meta_epoch": "2025-12-17T20:01:38.582976",
        "meta_mean_motion": 13.14238619,
        "meta_eccentricity": 0.05087058,
        "meta_inclination": 99.1461,
        "meta_ra_of_asc_node": 198.0132,
        "meta_arg_of_pericenter": 42.6804,
        "meta_mean_anomaly": 321.2685,
        "meta_ephemeris_type": 0,
        "meta_classification_type": "U",
        "meta_norad_cat_id": 37441,
        "meta_element_set_no": 999,
        "meta_rev_at_epoch": 82239,
        "meta_bstar": 0.0017432108,
        "meta_mean_motion_dot": 1.206e-05,
        "meta_mean_motion_ddot": 0,
        "tle_line1": "1 37441U 99025EHK 25351.83447434  .00001206  00000+0  17432-2 0  9994",
        "tle_line2": "2 37441  99.1461 198.0132 0508705  42.6804 321.2685 13.14238619822393"
      },
      "geometry": {
        "type": "Point",
        "coordinates": [
          32.86044267332347,
          56.64675657168321
        ]
      }
    },
    {
      "type": "Feature",
      "properties": {
        "norad_id": 37444,
        "name": "FENGYUN 1C DEB",
        "group": "fengyun-1c-debris",
        "lat": -67.55937211126022,
        "lon": -129.2042897790175,
        "alt_km": 711.1964422866185,
        "timestamp": "2025-12-18T14:52:08.314910+00:00",
        "meta_object_name": "FENGYUN 1C DEB",
        "meta_object_id": "1999-025EHN",
        "meta_epoch": "2025-12-17T11:10:09.783264",
        "meta_mean_motion": 14.48061056,
        "meta_eccentricity": 0.02446455,
        "meta_inclination": 99.0825,
        "meta_ra_of_asc_node": 72.3432,
        "meta_arg_of_pericenter": 334.919,
        "meta_mean_anomaly": 24.0276,
        "meta_ephemeris_type": 0,
        "meta_classification_type": "U",
        "meta_norad_cat_id": 37444,
        "meta_element_set_no": 999,
        "meta_rev_at_epoch": 65219,
        "meta_bstar": 0.00044684072,
        "meta_mean_motion_dot": 2.36e-05,
        "meta_mean_motion_ddot": 0,
        "tle_line1": "1 37444U 99025EHN 25351.46539101  .00002360  00000+0  44684-3 0  9991",
        "tle_line2": "2 37444  99.0825  72.3432 0244645 334.9190  24.0276 14.48061056652191"
      },
      "geometry": {
        "type": "Point",
        "coordinates": [
          -129.2042897790175,
          -67.55937211126022
        ]
      }
    },
    {
      "type": "Feature",
      "properties": {
        "norad_id": 37448,
        "name": "FENGYUN 1C DEB",
        "group": "fengyun-1c-debris",
        "lat": -79.12929948851546,
        "lon": 115.98894457580239,
        "alt_km": 1077.4814413617232,
        "timestamp": "2025-12-18T14:52:08.314921+00:00",
        "meta_object_name": "FENGYUN 1C DEB",
        "meta_object_id": "1999-025EHS",
        "meta_epoch": "2025-12-17T09:50:38.631840",
        "meta_mean_motion": 13.87103686,
        "meta_eccentricity": 0.03062777,
        "meta_inclination": 99.3197,
        "meta_ra_of_asc_node": 56.012,
        "meta_arg_of_pericenter": 46.1638,
        "meta_mean_anomaly": 316.4401,
        "meta_ephemeris_type": 0,
        "meta_classification_type": "U",
        "meta_norad_cat_id": 37448,
        "meta_element_set_no": 999,
        "meta_rev_at_epoch": 62440,
        "meta_bstar": 0.0010911098,
        "meta_mean_motion_dot": 1.811e-05,
        "meta_mean_motion_ddot": 0,
        "tle_line1": "1 37448U 99025EHS 25351.41016935  .00001811  00000+0  10911-2 0  9990",
        "tle_line2": "2 37448  99.3197  56.0120 0306277  46.1638 316.4401 13.87103686624401"
      },
      "geometry": {
        "type": "Point",
        "coordinates": [
          115.98894457580239,
          -79.12929948851546
        ]
      }
    },
    {
      "type": "Feature",
      "properties": {
        "norad_id": 37460,
        "name": "FENGYUN 1C DEB",
        "group": "fengyun-1c-debris",
        "lat": 39.92138747298064,
        "lon": 161.35856658439954,
        "alt_km": 753.5609116523974,
        "timestamp": "2025-12-18T14:52:08.314931+00:00",
        "meta_object_name": "FENGYUN 1C DEB",
        "meta_object_id": "1999-025EJE",
        "meta_epoch": "2025-12-08T10:53:05.307360",
        "meta_mean_motion": 14.47840336,
        "meta_eccentricity": 0.00565903,
        "meta_inclination": 98.3779,
        "meta_ra_of_asc_node": 158.3686,
        "meta_arg_of_pericenter": 303.3518,
        "meta_mean_anomaly": 56.2265,
        "meta_ephemeris_type": 0,
        "meta_classification_type": "U",
        "meta_norad_cat_id": 37460,
        "meta_element_set_no": 999,
        "meta_rev_at_epoch": 82427,
        "meta_bstar": 0.0027403859,
        "meta_mean_motion_dot": 0.00010316,
        "meta_mean_motion_ddot": 0,
        "tle_line1": "1 37460U 99025EJE 25342.45353365  .00010316  00000+0  27404-2 0  9994",
        "tle_line2": "2 37460  98.3779 158.3686 0056590 303.3518  56.2265 14.47840336824279"
      },
      "geometry": {
        "type": "Point",
        "coordinates": [
          161.35856658439954,
          39.92138747298064
        ]
      }
    }
  ]
}